KAZEOSAT 2              
1 40010U 14033A   26196.85787361  .00000832  00000+0  10212-3 0  9996
2 40010  97.5391  34.9536 0007411 216.6447 143.4263 14.85503605653211
HODOYOSHI-4             
1 40011U 14033B   26196.81224831  .00001344  00000+0  15073-3 0  9990
2 40011  97.5454  20.2547 0022665 207.2742 152.7287 14.88193060653069
DEIMOS-2                
1 40013U 14033D   26196.85342627  .00000549  00000+0  56927-4 0  9990
2 40013  97.5789  70.3307 0000963 108.7602 251.3723 14.93794693642007
HODOYOSHI-3             
1 40015U 14033F   26196.40994857  .00000453  00000+0  58227-4 0  9990
2 40015  97.6445 358.3197 0031303 261.1575  98.6096 14.85437358651817
SPOT 7                  
1 40053U 14034A   26196.80975512  .00000053  00000+0  20026-4 0  9996
2 40053  98.0619 258.5619 0001599  93.6028 266.5356 14.60980641641312
SKYSAT-B                
1 40072U 14037D   26196.83755785  .00000600  00000+0  71934-4 0  9993
2 40072  98.3854 157.4397 0005626 170.7304 189.4015 14.88092801650223
WORLDVIEW-3 (WV-3)      
1 40115U 14048A   26196.80356821  .00000379  00000+0  50604-4 0  9992
2 40115  97.8556 271.2403 0001348 155.1142 205.0138 14.85064761646150
GAOFEN-2                
1 40118U 14049A   26196.82474897  .00000498  00000+0  71302-4 0  9992
2 40118  98.0101 261.0028 0008275 132.4821 227.7092 14.80929120643476
YAOGAN-21               
1 40143U 14053A   26196.87269453  .00002601  00000+0  10142-3 0  9992
2 40143  97.1455 235.8816 0007810   6.1253 354.0081 15.26762329659331
YAOGAN-22               
1 40275U 14063A   26196.40062286 -.00000062  00000+0 -39658-4 0  9998
2 40275 100.7762 348.1468 0006869 124.7845 235.3914 13.15531514563524
ASNARO                  
1 40298U 14070A   26196.80273751  .00005774  00000+0  27228-3 0  9998
2 40298  97.3448 272.1481 0006773  86.7788 273.4222 15.19837282648356
YAOGAN-24               
1 40310U 14072A   26196.89076891  .00000794  00000+0  12253-3 0  9999
2 40310  98.1523 334.4731 0014651 167.3716 192.7863 14.76120797627950
CBERS 4                 
1 40336U 14079A   26196.89374103 -.00000068  00000+0 -90394-5 0  9991
2 40336  98.3519 252.8222 0000790  51.2598 308.8659 14.35515635608070
YAOGAN-26               
1 40362U 14088A   26196.90063266  .00008846  00000+0  16826-3 0  9993
2 40362  97.0645 196.4592 0001790 337.7441  22.3732 15.48458791642148
SMAP                    
1 40376U 15003A   26196.72934463  .00000188  00000+0  45398-4 0  9990
2 40376  98.1284 203.4205 0001605  94.8276 265.3109 14.63389456611797
KOMPSAT-3A              
1 40536U 15014A   26196.88309572  .00021218  00000+0  29116-3 0  9990
2 40536  97.6890 190.3761 0056210  73.2368 287.5043 15.55455489626272
SENTINEL-2A             
1 40697U 15028A   26196.81609713  .00000065  00000+0  41446-4 0  9994
2 40697  98.5683 271.2599 0001272  94.2859 265.8469 14.30814530577829
GAOFEN-8                
1 40701U 15030A   26196.88161831  .00015112  00000+0  30092-3 0  9997
2 40701  97.6885  31.9950 0009937  93.3321 266.9064 15.46965154615880
CARBONITE 1 (CBNT-1)    
1 40718U 15032D   26196.84610640  .00001240  00000+0  15603-3 0  9998
2 40718  97.6512  13.7152 0013933 194.8211 165.2597 14.83669610593596
YAOGAN-27               
1 40878U 15040A   26196.91645758  .00000053  00000+0  25005-3 0  9998
2 40878 100.1165 182.0543 0008587 143.5613 216.6086 13.16072860521446
GAOFEN-9 01             
1 40894U 15047A   26196.87501006  .00000501  00000+0  67543-4 0  9997
2 40894  97.6264 231.2650 0028419  48.3473 312.0168 14.82935901584441
YAOGAN-28               
1 41026U 15064A   26196.88265572  .00003649  00000+0  13698-3 0  9997
2 41026  97.3112 334.5714 0012074  90.9675 269.2948 15.27765504595062
YAOGAN-29               
1 41038U 15069A   26196.85152486  .00000500  00000+0  68053-4 0  9990
2 41038  98.0018 225.5279 0000693  14.4262 345.6970 14.83108115574870
KENT RIDGE 1            
1 41167U 15077B   26196.77914682  .00002417  00000+0  67771-4 0  9992
2 41167  14.9805  53.3190 0008310 283.4619  76.4777 15.23285837585464
GAOFEN-4                
1 41194U 15083A   26194.68502446 -.00000340  00000+0  00000+0 0  9999
2 41194   0.4223  83.7871 0003940 124.9375  75.1281  1.00274923 38792
JASON-3                 
1 41240U 16002A   26196.81829182 -.00000031  00000+0  12153-3 0  9992
2 41240  66.0416  65.6423 0008176 270.8874  89.1208 12.87628682490933
SENTINEL-3A             
1 41335U 16011A   26196.82954410  .00000047  00000+0  37553-4 0  9999
2 41335  98.6237 263.7998 0001358  89.6677 270.4659 14.26739862542144
ZIYUAN 3-02 (ZY 3-02)   
1 41556U 16033A   26196.86730976  .00002707  00000+0  12332-3 0  9993
2 41556  97.3827 272.0902 0014146 182.5825 177.5341 15.21437945562347
CARTOSAT-2C             
1 41599U 16040A   26196.84326981  .00002300  00000+0  11223-3 0  9990
2 41599  97.4467 256.4242 0009511  42.8013 317.3961 15.19265904558062
SKYSAT-C1               
1 41601U 16040C   26196.54530963  .00005374  00000+0  15178-3 0  9995
2 41601  96.9548 226.7338 0000299 305.8175  54.3043 15.36752207562229
LAPAN-A3                
1 41603U 16040E   26196.84273980  .00001848  00000+0  59763-4 0  9994
2 41603  97.1505 192.0521 0008243 273.3791  86.6509 15.33280505559209
