OBJECT_NAME,OBJECT_ID,EPOCH,MEAN_MOTION,ECCENTRICITY,INCLINATION,RA_OF_ASC_NODE,ARG_OF_PERICENTER,MEAN_ANOMALY,EPHEMERIS_TYPE,CLASSIFICATION_TYPE,NORAD_CAT_ID,ELEMENT_SET_NO,REV_AT_EPOCH,BSTAR,MEAN_MOTION_DOT,MEAN_MOTION_DDOT
KAZEOSAT 2,2014-033A,2026-07-15T20:35:20.279904,14.85503605,.0007411,97.5391,34.9536,216.6447,143.4263,0,U,40010,999,65321,.10212E-3,.832E-5,0
HODOYOSHI-4,2014-033B,2026-07-15T19:29:38.253984,14.88193060,.0022665,97.5454,20.2547,207.2742,152.7287,0,U,40011,999,65306,.15073E-3,.1344E-4,0
DEIMOS-2,2014-033D,2026-07-15T20:28:56.029728,14.93794693,.0000963,97.5789,70.3307,108.7602,251.3723,0,U,40013,999,64200,.56927E-4,.549E-5,0
HODOYOSHI-3,2014-033F,2026-07-15T09:50:19.556448,14.85437358,.00313032,97.6445,358.3197,261.1575,98.6096,0,U,40015,999,65181,.58226648E-4,.453E-5,0
SPOT 7,2014-034A,2026-07-15T19:26:02.842368,14.60980641,.0001599,98.0619,258.5619,93.6028,266.5356,0,U,40053,999,64131,.20026E-4,.53E-6,0
SKYSAT-B,2014-037D,2026-07-15T20:06:04.998240,14.88092801,.0005626,98.3854,157.4397,170.7304,189.4015,0,U,40072,999,65022,.71934E-4,.6E-5,0
WORLDVIEW-3 (WV-3),2014-048A,2026-07-15T19:17:08.293344,14.85064761,.0001348,97.8556,271.2403,155.1142,205.0138,0,U,40115,999,64615,.50604E-4,.379E-5,0
GAOFEN-2,2014-049A,2026-07-15T19:47:38.311008,14.80929120,.0008275,98.0101,261.0028,132.4821,227.7092,0,U,40118,999,64347,.71302E-4,.498E-5,0
YAOGAN-21,2014-053A,2026-07-15T20:56:40.807392,15.26762329,.000781,97.1455,235.8816,6.1253,354.0081,0,U,40143,999,65933,.10142E-3,.2601E-4,0
YAOGAN-22,2014-063A,2026-07-15T09:36:53.815104,13.15531514,.00068691,100.7762,348.1468,124.7845,235.3914,0,U,40275,999,56352,-.39658494E-4,-.62E-6,0
ASNARO,2014-070A,2026-07-15T19:15:56.520864,15.19837282,.0006773,97.3448,272.1481,86.7788,273.4222,0,U,40298,999,64835,.27228E-3,.5774E-4,0
YAOGAN-24,2014-072A,2026-07-15T21:22:42.433824,14.76120797,.0014651,98.1523,334.4731,167.3716,192.7863,0,U,40310,999,62795,.12253E-3,.794E-5,0
CBERS 4,2014-079A,2026-07-15T21:26:59.224992,14.35515635,.000079,98.3519,252.8222,51.2598,308.8659,0,U,40336,999,60807,-.90394E-5,-.68E-6,0
YAOGAN-26,2014-088A,2026-07-15T21:36:54.661824,15.48458791,.000179,97.0645,196.4592,337.7441,22.3732,0,U,40362,999,64214,.16826E-3,.8846E-4,0
SMAP,2015-003A,2026-07-15T17:30:15.376032,14.63389456,.0001605,98.1284,203.4205,94.8276,265.3109,0,U,40376,999,61179,.45398E-4,.188E-5,0
KOMPSAT-3A,2015-014A,2026-07-15T21:11:39.470208,15.55455489,.005621,97.6890,190.3761,73.2368,287.5043,0,U,40536,999,62627,.29116E-3,.21218E-3,0
SENTINEL-2A,2015-028A,2026-07-15T19:35:10.792032,14.30814530,.0001272,98.5683,271.2599,94.2859,265.8469,0,U,40697,999,57782,.41446E-4,.65E-6,0
GAOFEN-8,2015-030A,2026-07-15T21:09:31.821984,15.46965154,.0009937,97.6885,31.9950,93.3321,266.9064,0,U,40701,999,61588,.30092E-3,.15112E-3,0
CARBONITE 1 (CBNT-1),2015-032D,2026-07-15T20:18:23.592960,14.83669610,.0013933,97.6512,13.7152,194.8211,165.2597,0,U,40718,999,59359,.15603E-3,.124E-4,0
YAOGAN-27,2015-040A,2026-07-15T21:59:41.934912,13.16072860,.0008587,100.1165,182.0543,143.5613,216.6086,0,U,40878,999,52144,.25005E-3,.53E-6,0
GAOFEN-9 01,2015-047A,2026-07-15T21:00:00.869184,14.82935901,.0028419,97.6264,231.2650,48.3473,312.0168,0,U,40894,999,58444,.67543E-4,.501E-5,0
YAOGAN-28,2015-064A,2026-07-15T21:11:01.454208,15.27765504,.0012074,97.3112,334.5714,90.9675,269.2948,0,U,41026,999,59506,.13698E-3,.3649E-4,0
YAOGAN-29,2015-069A,2026-07-15T20:26:11.747904,14.83108115,.0000693,98.0018,225.5279,14.4262,345.6970,0,U,41038,999,57487,.68053E-4,.5E-5,0
KENT RIDGE 1,2015-077B,2026-07-15T18:41:58.285248,15.23285837,.000831,14.9805,53.3190,283.4619,76.4777,0,U,41167,999,58546,.67771E-4,.2417E-4,0
GAOFEN-4,2015-083A,2026-07-13T16:26:26.113344,1.00274923,.00039405,0.4223,83.7871,124.9375,75.1281,0,U,41194,999,3879,0,-.34E-5,0
JASON-3,2016-002A,2026-07-15T19:38:20.413248,12.87628682,.0008176,66.0416,65.6423,270.8874,89.1208,0,U,41240,999,49093,.12153E-3,-.31E-6,0
SENTINEL-3A,2016-011A,2026-07-15T19:54:32.610240,14.26739862,.0001358,98.6237,263.7998,89.6677,270.4659,0,U,41335,999,54214,.37553E-4,.47E-6,0
ZIYUAN 3-02 (ZY 3-02),2016-033A,2026-07-15T20:48:55.563264,15.21437945,.0014146,97.3827,272.0902,182.5825,177.5341,0,U,41556,999,56234,.12332E-3,.2707E-4,0
CARTOSAT-2C,2016-040A,2026-07-15T20:14:18.511584,15.19265904,.0009511,97.4467,256.4242,42.8013,317.3961,0,U,41599,999,55806,.11223E-3,.23E-4,0
SKYSAT-C1,2016-040C,2026-07-15T13:05:14.752032,15.36752207,.0000299,96.9548,226.7338,305.8175,54.3043,0,U,41601,999,56222,.15177567E-3,.5374E-4,0
LAPAN-A3,2016-040E,2026-07-15T20:13:32.718720,15.33280505,.0008243,97.1505,192.0521,273.3791,86.6509,0,U,41603,999,55920,.59763E-4,.1848E-4,0
